[{"OBJECT_NAME":"OBJECT F","OBJECT_ID":"2024-153F","EPOCH":"2026-03-09T23:13:25.507776","MEAN_MOTION":15.23037528,"ECCENTRICITY":0.00053669,"INCLINATION":97.6558,"RA_OF_ASC_NODE":203.2719,"ARG_OF_PERICENTER":225.0651,"MEAN_ANOMALY":135.0151,"EPHEMERIS_TYPE":0,"CLASSIFICATION_TYPE":"U","NORAD_CAT_ID":60750,"ELEMENT_SET_NO":999,"REV_AT_EPOCH":8468,"BSTAR":0.00084475391,"MEAN_MOTION_DOT":0.00019856,"MEAN_MOTION_DDOT":0},{"OBJECT_NAME":"OBJECT F","OBJECT_ID":"2025-108F","EPOCH":"2026-03-09T23:20:53.522880","MEAN_MOTION":15.23792837,"ECCENTRICITY":0.00112374,"INCLINATION":97.4753,"RA_OF_ASC_NODE":146.7616,"ARG_OF_PERICENTER":356.2264,"MEAN_ANOMALY":3.8886,"EPHEMERIS_TYPE":0,"CLASSIFICATION_TYPE":"U","NORAD_CAT_ID":64092,"ELEMENT_SET_NO":999,"REV_AT_EPOCH":4437,"BSTAR":0.0010326251,"MEAN_MOTION_DOT":0.00024889,"MEAN_MOTION_DDOT":0}]
